*******************************************************************************
Ephemeris / WWW_USER Mon Jul 15 19:13:09 2024 Pasadena, USA      / Horizons    
*******************************************************************************
Target body name: (2018 VS1)                      {source: JPL#4}
Center body name: Earth (399)                     {source: DE441}
Center-site name: Gemini South Obs., Cerro Pachon
*******************************************************************************
Start time      : A.D. 2018-Nov-28 23:37:00.0000 UT      
Stop  time      : A.D. 2018-Nov-29 09:24:00.0000 UT      
Step-size       : 1 minutes
*******************************************************************************
Target pole/equ : undefined
Target radii    : undefined                                                    
Center geodetic : 289.2634, -30.2406227, 2.71233  {E-lon(deg),Lat(deg),Alt(km)}
Center cylindric: 289.2634,5517.21435,-3194.81213 {E-lon(deg),Dxy(km),Dz(km)}
Center pole/equ : ITRF93                          {East-longitude positive}
Center radii    : 6378.137, 6378.137, 6356.752 km {Equator_a, b, pole_c}       
Target primary  : Sun
Vis. interferer : MOON (R_eq= 1737.400) km        {source: DE441}
Rel. light bend : Sun                             {source: DE441}
Rel. lght bnd GM: 1.3271E+11 km^3/s^2                                          
Small-body perts: Yes                             {source: SB441-N16}
Atmos refraction: NO (AIRLESS)
RA format       : HMS
Time format     : CAL 
Calendar mode   : Mixed Julian/Gregorian
RTS-only print  : NO       
EOP file        : eop.240715.p241008                                           
EOP coverage    : DATA-BASED 1962-JAN-20 TO 2024-JUL-15. PREDICTS-> 2024-OCT-07
Units conversion: 1 au= 149597870.700 km, c= 299792.458 km/s, 1 day= 86400.0 s 
Table cut-offs 1: Elevation (-90.0deg=NO ),Airmass (>38.000=NO), Daylight (YES)
Table cut-offs 2: Solar elongation (  0.0,180.0=NO ),Local Hour Angle( 0.0=NO )
Table cut-offs 3: RA/DEC angular rate (     0.0=NO )                           
*******************************************************************************
Initial IAU76/J2000 heliocentric ecliptic osculating elements (au, days, deg.):
  EPOCH=  2458427.5 ! 2018-Nov-05.00 (TDB)         Residual RMS= .21634        
   EC= .3907275528854954   QR= .7806320880190512   TP= 2458486.1030618688      
   OM= 55.95483604725189   W=  67.17004921097404   IN= 3.601110299269385       
  Equivalent ICRF heliocentric cartesian coordinates (au, au/d):
   X= 7.595935200506908E-01  Y= 6.354459268576240E-01  Z= 2.586666727482118E-01
  VX=-1.643099138746886E-02 VY= 7.530892270769961E-03 VZ= 4.533522122669557E-03
Asteroid physical parameters (km, seconds, rotational period in hours):        
   GM= n.a.                RAD= n.a.               ROTPER= n.a.                
   H= 26.6                 G= .150                 B-V= n.a.                   
                           ALBEDO= n.a.            STYP= n.a.                  
*******************************************************************************
 Date__(UT)__HR:MN     R.A._________(ICRF)_________DEC
******************************************************
$$SOE
 2018-Nov-28 23:37 C   14 48 57.766060 -09 16 54.18324
 2018-Nov-28 23:38 C   14 48 57.797810 -09 16 53.70151
 2018-Nov-28 23:39 C   14 48 57.829624 -09 16 53.21998
 2018-Nov-28 23:40 C   14 48 57.861503 -09 16 52.73864
 2018-Nov-28 23:41 C   14 48 57.893448 -09 16 52.25749
 2018-Nov-28 23:42 C   14 48 57.925456 -09 16 51.77653
 2018-Nov-28 23:43 C   14 48 57.957529 -09 16 51.29577
 2018-Nov-28 23:44 C   14 48 57.989666 -09 16 50.81521
 2018-Nov-28 23:45 C   14 48 58.021867 -09 16 50.33483
 2018-Nov-28 23:46 C   14 48 58.054132 -09 16 49.85466
 2018-Nov-28 23:47 C   14 48 58.086459 -09 16 49.37468
 2018-Nov-28 23:48 C   14 48 58.118850 -09 16 48.89490
 2018-Nov-28 23:49 C   14 48 58.151304 -09 16 48.41532
 2018-Nov-28 23:50 C   14 48 58.183820 -09 16 47.93593
 2018-Nov-28 23:51 C   14 48 58.216398 -09 16 47.45675
 2018-Nov-28 23:52 C   14 48 58.249039 -09 16 46.97776
 2018-Nov-28 23:53 C   14 48 58.281741 -09 16 46.49898
 2018-Nov-28 23:54 C   14 48 58.314505 -09 16 46.02040
 2018-Nov-28 23:55 C   14 48 58.347330 -09 16 45.54201
 2018-Nov-28 23:56 N   14 48 58.380216 -09 16 45.06383
 2018-Nov-28 23:57 N   14 48 58.413163 -09 16 44.58586
 2018-Nov-28 23:58 N   14 48 58.446170 -09 16 44.10808
 2018-Nov-28 23:59 N   14 48 58.479237 -09 16 43.63052
 2018-Nov-29 00:00 N   14 48 58.512365 -09 16 43.15315
 2018-Nov-29 00:01 N   14 48 58.545552 -09 16 42.67599
 2018-Nov-29 00:02 N   14 48 58.578799 -09 16 42.19904
 2018-Nov-29 00:03 N   14 48 58.612105 -09 16 41.72229
 2018-Nov-29 00:04 N   14 48 58.645469 -09 16 41.24575
 2018-Nov-29 00:05 N   14 48 58.678893 -09 16 40.76942
 2018-Nov-29 00:06 N   14 48 58.712374 -09 16 40.29330
 2018-Nov-29 00:07 N   14 48 58.745914 -09 16 39.81738
 2018-Nov-29 00:08 N   14 48 58.779512 -09 16 39.34168
 2018-Nov-29 00:09 N   14 48 58.813167 -09 16 38.86618
 2018-Nov-29 00:10 N   14 48 58.846879 -09 16 38.39090
 2018-Nov-29 00:11 N   14 48 58.880649 -09 16 37.91582
 2018-Nov-29 00:12 N   14 48 58.914475 -09 16 37.44096
 2018-Nov-29 00:13 N   14 48 58.948357 -09 16 36.96631
 2018-Nov-29 00:14 N   14 48 58.982296 -09 16 36.49187
 2018-Nov-29 00:15 N   14 48 59.016291 -09 16 36.01765
 2018-Nov-29 00:16 N   14 48 59.050341 -09 16 35.54364
 2018-Nov-29 00:17 N   14 48 59.084446 -09 16 35.06985
 2018-Nov-29 00:18 N   14 48 59.118607 -09 16 34.59627
 2018-Nov-29 00:19 N   14 48 59.152822 -09 16 34.12290
 2018-Nov-29 00:20 N   14 48 59.187092 -09 16 33.64975
 2018-Nov-29 00:21 N   14 48 59.221416 -09 16 33.17682
 2018-Nov-29 00:22 N   14 48 59.255794 -09 16 32.70410
 2018-Nov-29 00:23 N   14 48 59.290226 -09 16 32.23161
 2018-Nov-29 00:24 N   14 48 59.324710 -09 16 31.75933
 2018-Nov-29 00:25 N   14 48 59.359248 -09 16 31.28727
 2018-Nov-29 00:26 N   14 48 59.393839 -09 16 30.81543
 2018-Nov-29 00:27 N   14 48 59.428482 -09 16 30.34381
 2018-Nov-29 00:28 A   14 48 59.463177 -09 16 29.87241
 2018-Nov-29 00:29 A   14 48 59.497924 -09 16 29.40123
 2018-Nov-29 00:30 A   14 48 59.532723 -09 16 28.93027
 2018-Nov-29 00:31 A   14 48 59.567573 -09 16 28.45953
 2018-Nov-29 00:32 A   14 48 59.602474 -09 16 27.98901
 2018-Nov-29 00:33 A   14 48 59.637425 -09 16 27.51872
 2018-Nov-29 00:34 A   14 48 59.672427 -09 16 27.04865
 2018-Nov-29 00:35 A   14 48 59.707479 -09 16 26.57881
 2018-Nov-29 00:36 A   14 48 59.742581 -09 16 26.10919
 2018-Nov-29 00:37 A   14 48 59.777732 -09 16 25.63979
 2018-Nov-29 00:38 A   14 48 59.812933 -09 16 25.17062
 2018-Nov-29 00:39 A   14 48 59.848182 -09 16 24.70168
 2018-Nov-29 00:40 A   14 48 59.883480 -09 16 24.23296
 2018-Nov-29 00:41 A   14 48 59.918826 -09 16 23.76447
 2018-Nov-29 00:42 A   14 48 59.954220 -09 16 23.29620
 2018-Nov-29 00:43 A   14 48 59.989662 -09 16 22.82817
 2018-Nov-29 00:44 A   14 49 00.025151 -09 16 22.36036
 2018-Nov-29 00:45 A   14 49 00.060688 -09 16 21.89278
 2018-Nov-29 00:46 A   14 49 00.096271 -09 16 21.42543
 2018-Nov-29 00:47 A   14 49 00.131900 -09 16 20.95831
 2018-Nov-29 00:48 A   14 49 00.167576 -09 16 20.49141
 2018-Nov-29 00:49 A   14 49 00.203297 -09 16 20.02475
 2018-Nov-29 00:50 A   14 49 00.239064 -09 16 19.55832
 2018-Nov-29 00:51 A   14 49 00.274876 -09 16 19.09212
 2018-Nov-29 00:52 A   14 49 00.310733 -09 16 18.62616
 2018-Nov-29 00:53 A   14 49 00.346634 -09 16 18.16042
 2018-Nov-29 00:54 A   14 49 00.382580 -09 16 17.69492
 2018-Nov-29 00:55 A   14 49 00.418569 -09 16 17.22965
 2018-Nov-29 00:56 A   14 49 00.454602 -09 16 16.76461
 2018-Nov-29 00:57 A   14 49 00.490679 -09 16 16.29981
 2018-Nov-29 00:58 A   14 49 00.526798 -09 16 15.83524
 2018-Nov-29 00:59 A   14 49 00.562960 -09 16 15.37091
 2018-Nov-29 01:00 A   14 49 00.599165 -09 16 14.90681
 2018-Nov-29 01:01 A   14 49 00.635411 -09 16 14.44295
 2018-Nov-29 01:02 A   14 49 00.671699 -09 16 13.97932
 2018-Nov-29 01:03     14 49 00.708029 -09 16 13.51593
 2018-Nov-29 01:04     14 49 00.744399 -09 16 13.05277
 2018-Nov-29 01:05     14 49 00.780811 -09 16 12.58986
 2018-Nov-29 01:06     14 49 00.817262 -09 16 12.12718
 2018-Nov-29 01:07     14 49 00.853754 -09 16 11.66473
 2018-Nov-29 01:08     14 49 00.890285 -09 16 11.20253
 2018-Nov-29 01:09     14 49 00.926856 -09 16 10.74057
 2018-Nov-29 01:10     14 49 00.963466 -09 16 10.27884
 2018-Nov-29 01:11     14 49 01.000115 -09 16 09.81735
 2018-Nov-29 01:12     14 49 01.036802 -09 16 09.35611
 2018-Nov-29 01:13     14 49 01.073527 -09 16 08.89510
 2018-Nov-29 01:14     14 49 01.110290 -09 16 08.43433
 2018-Nov-29 01:15     14 49 01.147091 -09 16 07.97381
 2018-Nov-29 01:16     14 49 01.183928 -09 16 07.51352
 2018-Nov-29 01:17     14 49 01.220802 -09 16 07.05348
 2018-Nov-29 01:18     14 49 01.257713 -09 16 06.59368
 2018-Nov-29 01:19     14 49 01.294660 -09 16 06.13412
 2018-Nov-29 01:20     14 49 01.331643 -09 16 05.67480
 2018-Nov-29 01:21     14 49 01.368661 -09 16 05.21573
 2018-Nov-29 01:22     14 49 01.405714 -09 16 04.75690
 2018-Nov-29 01:23     14 49 01.442802 -09 16 04.29831
 2018-Nov-29 01:24     14 49 01.479925 -09 16 03.83997
 2018-Nov-29 01:25     14 49 01.517081 -09 16 03.38187
 2018-Nov-29 01:26     14 49 01.554271 -09 16 02.92402
 2018-Nov-29 01:27     14 49 01.591495 -09 16 02.46641
 2018-Nov-29 01:28     14 49 01.628752 -09 16 02.00905
 2018-Nov-29 01:29     14 49 01.666041 -09 16 01.55193
 2018-Nov-29 01:30     14 49 01.703363 -09 16 01.09506
 2018-Nov-29 01:31     14 49 01.740717 -09 16 00.63843
 2018-Nov-29 01:32     14 49 01.778103 -09 16 00.18205
 2018-Nov-29 01:33     14 49 01.815520 -09 15 59.72592
 2018-Nov-29 01:34     14 49 01.852968 -09 15 59.27003
 2018-Nov-29 01:35     14 49 01.890447 -09 15 58.81439
 2018-Nov-29 01:36     14 49 01.927956 -09 15 58.35900
 2018-Nov-29 01:37     14 49 01.965495 -09 15 57.90385
 2018-Nov-29 01:38     14 49 02.003064 -09 15 57.44896
 2018-Nov-29 01:39     14 49 02.040662 -09 15 56.99431
